#dP2024 11 11 18  0  0.00000000      96 __u+U IGS20 EXT  IAC
## 2340 151200.00000000   900.00000000 60625 0.7500000000000
+   52   G02G03G04G05G06G07G08G09G10G11G12G13G14G15G16G17G18
+        G19G20G21G22G23G24G25G26G27G28G29G30G31G32R01R02R03
+        R04R05R07R08R09R11R12R14R15R16R17R18R19R20R21R22R24
+        R26  0  0  0  0  0  0  0  0  0  0  0  0  0  0  0  0
+          0  0  0  0  0  0  0  0  0  0  0  0  0  0  0  0  0
++         7  8  7  8  8  7  8  7  7  7  7  7  7  7  8  6  7
++         7  8  8  9  8  7  7  6  7  7  8  7  7  8  9  9  9
++         9  9  7  6  9  8  8  8  7  7  7  8  7  9  8  7  8
++        10  0  0  0  0  0  0  0  0  0  0  0  0  0  0  0  0
++         0  0  0  0  0  0  0  0  0  0  0  0  0  0  0  0  0
%c M  cc GPS ccc cccc cccc cccc cccc ccccc ccccc ccccc ccccc
%c cc cc ccc ccc cccc cccc cccc cccc ccccc ccccc ccccc ccccc
%f  0.0000000  0.000000000  0.00000000000  0.000000000000000
%f  0.0000000  0.000000000  0.00000000000  0.000000000000000
%i    0    0    0    0      0      0      0      0         0
%i    0    0    0    0      0      0      0      0         0
/* IAC                                ULTRA-RAPID PREDICTION
/* S/V CLOCKS ARE ALIGNED TO GNSS TIME                      
/* G:C1WC2W R:C1PC2P E:C1XC5X C:C2IC6I J:C1CC2S             
/* PCV:IGS20_2317 OL/AL:FES2004  NONE     YN ORB:CoN CLK:CoN
*  2024 11 12  3 30  0.00000000
PG02  17514.981870   4357.022736  20074.261228   -316.535736
PG03  19874.621266  -8379.965033  15259.235500    597.405177
PG04  25641.105228   -103.186579  -7208.034264    477.969789
PG05 -13427.608014  -6973.478201 -22011.783562   -192.724851
PG06  -4491.279579 -25252.033156   6743.859630   -107.913517
PG07  10412.871491 -12937.651257 -20093.894336    -20.707748
PG08  25590.149682   6476.186900  -4753.274378    411.144164
PG09  20396.527441  -8019.614274 -15142.123216    439.750370
PG10  -7692.459861  22231.751751  12207.417074   -192.515824
PG11 -12548.450433 -22348.699834  -7049.777106   -749.664565
PG12 -19553.060209   3241.223403  17373.831421   -551.485115
PG13 -20240.092373 -13877.128178 -10689.285545    685.650120
PG14  11053.407015 -22512.249132   8427.364003    537.891919
PG15 -26037.650492  -3559.502154  -4893.133159    226.736405
PG16   9490.168936  12207.986482 -21913.555156   -130.667255
PG17   5256.929264 -14461.236411  22075.990895    561.987481
PG18  -9029.692567  14872.812634 -19970.365561   -660.214180
PG19  -6664.963614 -16112.244631  20013.919201    561.716075
PG20  -5854.502553 -17432.113929 -19137.782653    368.819134
PG21  18451.078267  11265.099524  16504.384771     97.668077
PG22   5288.545729 -21218.336703  15683.583089    -78.720750
PG23 -16671.049306  20477.639389  -1182.581373    361.399328
PG24 -18185.813327  -6720.731049  17863.326738   -480.735727
PG25 -19432.094657  15963.182858   7767.677509    499.064430
PG26   1204.574977  20524.264198 -16778.307740     29.162725
PG27  18866.519540  12863.243561 -14218.303302    -34.729296
PG28   3891.227924  24807.138671   8637.985470   -476.183504
PG29 -21618.505860   5242.117058 -14648.115437   -564.444792
PG30   2576.410953 -22144.453474 -14087.397076   -283.730478
PG31  10599.323377  24012.989168  -2624.502521   -221.912130
PG32  -1067.117942  15268.601422  21932.786407   -574.928808
PR01 -14450.078952  11859.162697  17354.214715    104.118352
PR02   3335.306901  10292.962655  23141.658954    -25.600986
PR03  19848.737147   3425.330722  15736.775454    111.213924
PR04  25057.084119  -4842.269532     57.039824    263.572593
PR05  17076.250077 -10631.522216 -15699.111644    140.564761
PR07 -20077.098396  -3206.483663 -15328.893888     94.801552
PR08 -24937.118440   5248.588222    330.677733     -6.279273
PR09    760.212700 -22747.902579  11448.265069    220.025627
PR11 -12679.969985   6853.550340  21058.347011      7.113320
PR12 -10463.528729  22397.162186   6283.369247     47.122710
PR14   8060.797017  10001.406410 -22032.037238     27.201291
PR15  13005.005530  -8546.755945 -20193.236851     74.194091
PR16  10394.594284 -22365.340037  -6437.069230     30.735811
PR17  18409.564313  16291.491321   6734.682706    139.061207
PR18  15550.445334   4377.818131  19779.048229    171.440449
PR19   6582.800264  -8395.843080  23178.109858   -298.133838
PR20  -9601.975176 -20479.067502  11776.574903   -121.879034
PR21 -18117.847657 -17036.758366  -5738.691313   -150.570696
PR22 -15160.489972  -3391.973747 -20197.266879     -7.469851
PR24  10770.467461  20224.365877 -11160.630112    -79.782925
PR26 -25058.643301   4563.356997  -1504.435707   -133.587817
*  2024 11 12  3 45  0.00000000
PG02  18423.642031   6270.774828  18704.691726   -316.528067
PG03  18833.814441  -6802.035622  17226.354957    597.414614
PG04  26263.483219    220.841838  -4455.026866    477.975649
PG05 -12030.444505  -9021.840978 -22070.310819   -192.725964
PG06  -3992.920978 -24462.756464   9460.025271   -107.939677
PG07  11464.308499 -10706.350464 -20842.722570    -20.705636
PG08  24895.391431   6655.537346  -7448.815081    411.153450
PG09  21962.374350  -7673.494834 -12967.182974    439.765652
PG10  -8575.378985  23103.684437   9662.633817   -192.528735
PG11 -12559.677343 -23038.865138  -4285.504682   -749.666149
PG12 -18264.804018   1537.975240  18920.204582   -551.487396
PG13 -18923.655906 -13690.649387 -13099.608689    685.651559
PG14  11792.582784 -22964.094451   5749.099663    537.899215
PG15 -25394.980002  -3872.939604  -7571.457187    226.740463
PG16   7834.283862  13964.937545 -21468.321319   -130.658368
PG17   7624.050429 -13999.336074  21688.797420    561.974510
PG18  -9984.325455  12721.972841 -20994.575848   -660.214642
PG19  -4348.538442 -15642.120545  20956.207966    561.720111
PG20  -4779.491854 -19259.391795 -17645.099250    368.818836
PG21  19147.848500  12790.970388  14519.487453     97.667260
PG22   6484.765052 -22295.338719  13568.593756    -78.723413
PG23 -16664.923456  20105.921524  -4072.942878    361.406499
PG24 -18993.203783  -8587.535610  16225.525681   -480.733846
PG25 -19023.724272  14913.113518  10349.342689    499.064147
PG26     34.563932  21922.238365 -14895.774317     29.150879
PG27  17179.215869  12824.150518 -16249.993945    -34.729258
PG28   3210.718726  23869.768455  11180.483632   -476.194194
PG29 -23089.190707   4767.826864 -12396.544640   -564.442194
PG30   3496.759036 -20617.434143 -16072.024495   -283.723510
PG31  10359.523109  24228.842921    235.771459   -221.911516
PG32  -3507.890884  14977.390206  21860.169708   -574.924134
PR01 -16353.885169  12486.944825  15075.606871    104.119469
PR02    563.845141  10928.292054  23077.495505    -25.601121
PR03  17810.509422   3793.908298  17937.013364    111.214577
PR04  24818.743454  -4975.978934   3275.501963    263.574131
PR05  18784.079460 -11164.825783 -13179.741178    140.565277
PR07 -18066.127039  -3571.808437 -17583.991059     94.802222
PR08 -24738.734687   5368.558600  -2888.189781     -6.279197
PR09    993.110741 -23963.181474   8582.118324    220.027584
PR11 -11903.217557   4304.650504  22157.248542      7.112588
PR12 -10075.957291  21511.327608   9299.475108     47.123050
PR14   7385.631837  12565.617910 -20929.982300     27.201349
PR15  12235.029563  -6086.879116 -21521.509967     74.193742
PR16   9986.592991 -21460.017922  -9456.893535     30.736322
PR17  18974.906059  16633.008874   3582.779585    139.064157
PR18  17204.357841   6010.263815  17892.059212    171.442097
PR19   8444.628434  -6214.672536  23261.057809   -298.134944
PR20  -8685.996518 -19131.488139  14455.899703   -121.880830
PR21 -18610.203654 -17281.042845  -2557.501860   -150.573385
PR22 -16792.788209  -5143.102608 -18463.988410     -7.480638
PR24   9799.132640  19011.844888 -13857.213338    -79.784309
PR26 -24645.323791   4633.326533  -4695.555726   -133.587571
EOF
